{
    "links": {
        "self": "http://www.neowsapp.com/rest/v1/neo/3742053?api_key=iIulBulltgU6a56xZRHN4H3l9WmuAYTsLGpBGhQ2"
    },
    "id": "3742053",
    "neo_reference_id": "3742053",
    "name": "(2016 CV30)",
    "designation": "2016 CV30",
    "nasa_jpl_url": "http://ssd.jpl.nasa.gov/sbdb.cgi?sstr=3742053",
    "absolute_magnitude_h": 20.9,
    "estimated_diameter": {
        "kilometers": {
            "estimated_diameter_min": 0.1756123185,
            "estimated_diameter_max": 0.3926810818
        },
        "meters": {
            "estimated_diameter_min": 175.6123184804,
            "estimated_diameter_max": 392.6810818086
        },
        "miles": {
            "estimated_diameter_min": 0.1091204019,
            "estimated_diameter_max": 0.2440006365
        },
        "feet": {
            "estimated_diameter_min": 576.1559189633,
            "estimated_diameter_max": 1288.3238004408
        }
    },
    "is_potentially_hazardous_asteroid": false,
    "close_approach_data": [
        {
            "close_approach_date": "2016-02-08",
            "close_approach_date_full": "2016-Feb-08 22:45",
            "epoch_date_close_approach": 1454971500000,
            "relative_velocity": {
                "kilometers_per_second": "19.1285413585",
                "kilometers_per_hour": "68862.7488904326",
                "miles_per_hour": "42788.6341647246"
            },
            "miss_distance": {
                "astronomical": "0.2149494811",
                "lunar": "83.6153481479",
                "kilometers": "32155984.530165257",
                "miles": "19980802.2649322666"
            },
            "orbiting_body": "Earth"
        }
    ],
    "orbital_data": {
        "orbit_id": "16",
        "orbit_determination_date": "2017-04-06 08:28:37",
        "first_observation_date": "2016-02-05",
        "last_observation_date": "2016-02-29",
        "data_arc_in_days": 24,
        "observations_used": 204,
        "orbit_uncertainty": "7",
        "minimum_orbit_intersection": ".213698",
        "jupiter_tisserand_invariant": "3.194",
        "epoch_osculation": "2459000.5",
        "eccentricity": ".4859190050363191",
        "semi_major_axis": "2.332708570312089",
        "inclination": "34.56963334311253",
        "ascending_node_longitude": "139.0983511764297",
        "orbital_period": "1301.335131264999",
        "perihelion_distance": "1.199201142786344",
        "perihelion_argument": "4.801129005628065",
        "aphelion_distance": "3.466215997837834",
        "perihelion_time": "2458730.500715977245",
        "mean_anomaly": "74.69232168788544",
        "mean_motion": ".2766389620558787",
        "equinox": "J2000",
        "orbit_class": {
            "orbit_class_type": "AMO",
            "orbit_class_description": "Near-Earth asteroid orbits similar to that of 1221 Amor",
            "orbit_class_range": "1.017 AU < q (perihelion) < 1.3 AU"
        }
    },
    "is_sentry_object": false
}